ONEWEB-0228             
1 48780U 21045P   23305.44707848 -.00000001  00000+0 -37661-4 0  9993
2 48780  87.8960  90.0551 0001509  89.0540 271.0763 13.15548884118270
